SL-16 R/B               
1 22566U 93016B   26015.27713188 -.00000162  00000+0 -58940-4 0  9991
2 22566  71.0088 327.3647 0008702  33.4097 326.7574 14.15293522694616
COSMOS 2242             
1 22626U 93024A   26015.34245392  .00001450  00000+0  12568-3 0  9996
2 22626  82.5210 317.7258 0017747 120.9287 239.3682 14.96273559772411
SL-16 R/B               
1 22803U 93059B   26015.61141493  .00000226  00000+0  13562-3 0  9993
2 22803  70.9910 123.0613 0019356 288.6485  71.2537 14.17221198672011
ARIANE 40 R/B           
1 22830U 93061H   26015.62685799  .00000124  00000+0  61208-4 0  9997
2 22830  98.5024  85.5323 0011803  83.0433 277.2093 14.32825777686506
COSMOS 2278             
1 23087U 94023A   26015.13024131  .00000149  00000+0  10264-3 0  9996
2 23087  71.0549 287.1530 0006688 117.2630 242.9175 14.14364243637235
SL-16 R/B               
1 23088U 94023B   26015.62517294  .00000171  00000+0  11316-3 0  9992
2 23088  70.9992 182.3251 0003350 338.5885  21.5097 14.15005850638585
SL-16 R/B               
1 23343U 94074B   26015.64190610  .00000296  00000+0  46358-4 0  9996
2 23343  97.7171  48.5938 0007522  43.6995  79.1455 14.79333494679402
SL-16 R/B               
1 23405U 94077B   26015.62750136  .00000245  00000+0  14978-3 0  9997
2 23405  70.9836 104.1243 0004794 257.1224 102.9363 14.15555454608727
ARIANE 40+ R/B          
1 23561U 95021B   26015.66964859  .00000184  00000+0  72804-4 0  9998
2 23561  98.4602  87.8420 0005722 305.8432 207.2604 14.39724624611616
SL-16 R/B               
1 23705U 95058B   26015.20784554 -.00000059  00000+0 -58509-5 0  9990
2 23705  71.0227 292.5392 0013632 210.7875 149.2450 14.15490120560288
SL-16 R/B               
1 24298U 96051B   26015.19992698  .00000000  00000+0  26924-4 0  9999
2 24298  70.7594 288.4596 0018969 220.1288 139.8432 14.12400859514090
ORBVIEW 2 (SEASTAR)     
1 24883U 97037A   26015.44348014  .00000195  00000+0  84118-4 0  9993
2 24883  98.8481 178.3718 0001855 192.3068 167.8071 14.35445604500830
