CCSDS_OMM_VERS = 2.0
CREATION_DATE  = 
ORIGINATOR     = 

OBJECT_NAME    = SL-16 R/B
OBJECT_ID      = 1993-016B
CENTER_NAME    = EARTH
REF_FRAME      = TEME
TIME_SYSTEM    = UTC
MEAN_ELEMENT_THEORY = SGP/SGP4

EPOCH          = 2026-01-15T06:39:04.194432
MEAN_MOTION    = 14.15293522
ECCENTRICITY   = .00087029
INCLINATION    = 71.0088
RA_OF_ASC_NODE = 327.3647
ARG_OF_PERICENTER = 33.4097
MEAN_ANOMALY   = 326.7574

EPHEMERIS_TYPE = 0
CLASSIFICATION_TYPE = U
NORAD_CAT_ID   = 22566
ELEMENT_SET_NO = 999
REV_AT_EPOCH   = 69461
BSTAR          = -.58939904E-4
MEAN_MOTION_DOT = -.162E-5
MEAN_MOTION_DDOT = 0

CCSDS_OMM_VERS = 2.0
CREATION_DATE  = 
ORIGINATOR     = 

OBJECT_NAME    = COSMOS 2242
OBJECT_ID      = 1993-024A
CENTER_NAME    = EARTH
REF_FRAME      = TEME
TIME_SYSTEM    = UTC
MEAN_ELEMENT_THEORY = SGP/SGP4

EPOCH          = 2026-01-15T08:13:08.018688
MEAN_MOTION    = 14.96273559
ECCENTRICITY   = .00177475
INCLINATION    = 82.5210
RA_OF_ASC_NODE = 317.7258
ARG_OF_PERICENTER = 120.9287
MEAN_ANOMALY   = 239.3682

EPHEMERIS_TYPE = 0
CLASSIFICATION_TYPE = U
NORAD_CAT_ID   = 22626
ELEMENT_SET_NO = 999
REV_AT_EPOCH   = 77241
BSTAR          = .12568052E-3
MEAN_MOTION_DOT = .145E-4
MEAN_MOTION_DDOT = 0

CCSDS_OMM_VERS = 2.0
CREATION_DATE  = 
ORIGINATOR     = 

OBJECT_NAME    = SL-16 R/B
OBJECT_ID      = 1993-059B
CENTER_NAME    = EARTH
REF_FRAME      = TEME
TIME_SYSTEM    = UTC
MEAN_ELEMENT_THEORY = SGP/SGP4

EPOCH          = 2026-01-15T14:40:26.249952
MEAN_MOTION    = 14.17221198
ECCENTRICITY   = .0019356
INCLINATION    = 70.9910
RA_OF_ASC_NODE = 123.0613
ARG_OF_PERICENTER = 288.6485
MEAN_ANOMALY   = 71.2537

EPHEMERIS_TYPE = 0
CLASSIFICATION_TYPE = U
NORAD_CAT_ID   = 22803
ELEMENT_SET_NO = 999
REV_AT_EPOCH   = 67201
BSTAR          = .13562344E-3
MEAN_MOTION_DOT = .226E-5
MEAN_MOTION_DDOT = 0

CCSDS_OMM_VERS = 2.0
CREATION_DATE  = 
ORIGINATOR     = 

OBJECT_NAME    = ARIANE 40 R/B
OBJECT_ID      = 1993-061H
CENTER_NAME    = EARTH
REF_FRAME      = TEME
TIME_SYSTEM    = UTC
MEAN_ELEMENT_THEORY = SGP/SGP4

EPOCH          = 2026-01-15T15:02:40.530336
MEAN_MOTION    = 14.32825777
ECCENTRICITY   = .0011803
INCLINATION    = 98.5024
RA_OF_ASC_NODE = 85.5323
ARG_OF_PERICENTER = 83.0433
MEAN_ANOMALY   = 277.2093

EPHEMERIS_TYPE = 0
CLASSIFICATION_TYPE = U
NORAD_CAT_ID   = 22830
ELEMENT_SET_NO = 999
REV_AT_EPOCH   = 68650
BSTAR          = .61207551E-4
MEAN_MOTION_DOT = .124E-5
MEAN_MOTION_DDOT = 0

CCSDS_OMM_VERS = 2.0
CREATION_DATE  = 
ORIGINATOR     = 

OBJECT_NAME    = COSMOS 2278
OBJECT_ID      = 1994-023A
CENTER_NAME    = EARTH
REF_FRAME      = TEME
TIME_SYSTEM    = UTC
MEAN_ELEMENT_THEORY = SGP/SGP4

EPOCH          = 2026-01-15T03:07:32.849184
MEAN_MOTION    = 14.14364243
ECCENTRICITY   = .00066888
INCLINATION    = 71.0549
RA_OF_ASC_NODE = 287.1530
ARG_OF_PERICENTER = 117.2630
MEAN_ANOMALY   = 242.9175

EPHEMERIS_TYPE = 0
CLASSIFICATION_TYPE = U
NORAD_CAT_ID   = 23087
ELEMENT_SET_NO = 999
REV_AT_EPOCH   = 63723
BSTAR          = .1026446E-3
MEAN_MOTION_DOT = .149E-5
MEAN_MOTION_DDOT = 0

CCSDS_OMM_VERS = 2.0
CREATION_DATE  = 
ORIGINATOR     = 

OBJECT_NAME    = SL-16 R/B
OBJECT_ID      = 1994-023B
CENTER_NAME    = EARTH
REF_FRAME      = TEME
TIME_SYSTEM    = UTC
MEAN_ELEMENT_THEORY = SGP/SGP4

EPOCH          = 2026-01-15T15:00:14.942016
MEAN_MOTION    = 14.15005850
ECCENTRICITY   = .00033509
INCLINATION    = 70.9992
RA_OF_ASC_NODE = 182.3251
ARG_OF_PERICENTER = 338.5885
MEAN_ANOMALY   = 21.5097

EPHEMERIS_TYPE = 0
CLASSIFICATION_TYPE = U
NORAD_CAT_ID   = 23088
ELEMENT_SET_NO = 999
REV_AT_EPOCH   = 63858
BSTAR          = .11316332E-3
MEAN_MOTION_DOT = .171E-5
MEAN_MOTION_DDOT = 0

CCSDS_OMM_VERS = 2.0
CREATION_DATE  = 
ORIGINATOR     = 

OBJECT_NAME    = SL-16 R/B
OBJECT_ID      = 1994-074B
CENTER_NAME    = EARTH
REF_FRAME      = TEME
TIME_SYSTEM    = UTC
MEAN_ELEMENT_THEORY = SGP/SGP4

EPOCH          = 2026-01-15T15:24:20.687040
MEAN_MOTION    = 14.79333494
ECCENTRICITY   = .00075228
INCLINATION    = 97.7171
RA_OF_ASC_NODE = 48.5938
ARG_OF_PERICENTER = 43.6995
MEAN_ANOMALY   = 79.1455

EPHEMERIS_TYPE = 0
CLASSIFICATION_TYPE = U
NORAD_CAT_ID   = 23343
ELEMENT_SET_NO = 999
REV_AT_EPOCH   = 67940
BSTAR          = .46357817E-4
MEAN_MOTION_DOT = .296E-5
MEAN_MOTION_DDOT = 0

CCSDS_OMM_VERS = 2.0
CREATION_DATE  = 
ORIGINATOR     = 

OBJECT_NAME    = SL-16 R/B
OBJECT_ID      = 1994-077B
CENTER_NAME    = EARTH
REF_FRAME      = TEME
TIME_SYSTEM    = UTC
MEAN_ELEMENT_THEORY = SGP/SGP4

EPOCH          = 2026-01-15T15:03:36.117504
MEAN_MOTION    = 14.15555454
ECCENTRICITY   = .0004794
INCLINATION    = 70.9836
RA_OF_ASC_NODE = 104.1243
ARG_OF_PERICENTER = 257.1224
MEAN_ANOMALY   = 102.9363

EPHEMERIS_TYPE = 0
CLASSIFICATION_TYPE = U
NORAD_CAT_ID   = 23405
ELEMENT_SET_NO = 999
REV_AT_EPOCH   = 60872
BSTAR          = .14977641E-3
MEAN_MOTION_DOT = .245E-5
MEAN_MOTION_DDOT = 0

CCSDS_OMM_VERS = 2.0
CREATION_DATE  = 
ORIGINATOR     = 

OBJECT_NAME    = ARIANE 40+ R/B
OBJECT_ID      = 1995-021B
CENTER_NAME    = EARTH
REF_FRAME      = TEME
TIME_SYSTEM    = UTC
MEAN_ELEMENT_THEORY = SGP/SGP4

EPOCH          = 2026-01-15T16:04:17.638176
MEAN_MOTION    = 14.39724624
ECCENTRICITY   = .00057224
INCLINATION    = 98.4602
RA_OF_ASC_NODE = 87.8420
ARG_OF_PERICENTER = 305.8432
MEAN_ANOMALY   = 207.2604

EPHEMERIS_TYPE = 0
CLASSIFICATION_TYPE = U
NORAD_CAT_ID   = 23561
ELEMENT_SET_NO = 999
REV_AT_EPOCH   = 61161
BSTAR          = .72804454E-4
MEAN_MOTION_DOT = .184E-5
MEAN_MOTION_DDOT = 0

CCSDS_OMM_VERS = 2.0
CREATION_DATE  = 
ORIGINATOR     = 

OBJECT_NAME    = SL-16 R/B
OBJECT_ID      = 1995-058B
CENTER_NAME    = EARTH
REF_FRAME      = TEME
TIME_SYSTEM    = UTC
MEAN_ELEMENT_THEORY = SGP/SGP4

EPOCH          = 2026-01-15T04:59:17.854656
MEAN_MOTION    = 14.15490120
ECCENTRICITY   = .00136322
INCLINATION    = 71.0227
RA_OF_ASC_NODE = 292.5392
ARG_OF_PERICENTER = 210.7875
MEAN_ANOMALY   = 149.2450

EPHEMERIS_TYPE = 0
CLASSIFICATION_TYPE = U
NORAD_CAT_ID   = 23705
ELEMENT_SET_NO = 999
REV_AT_EPOCH   = 56028
BSTAR          = -.5850934E-5
MEAN_MOTION_DOT = -.59E-6
MEAN_MOTION_DDOT = 0

CCSDS_OMM_VERS = 2.0
CREATION_DATE  = 
ORIGINATOR     = 

OBJECT_NAME    = SL-16 R/B
OBJECT_ID      = 1996-051B
CENTER_NAME    = EARTH
REF_FRAME      = TEME
TIME_SYSTEM    = UTC
MEAN_ELEMENT_THEORY = SGP/SGP4

EPOCH          = 2026-01-15T04:47:53.691072
MEAN_MOTION    = 14.12400859
ECCENTRICITY   = .00189692
INCLINATION    = 70.7594
RA_OF_ASC_NODE = 288.4596
ARG_OF_PERICENTER = 220.1288
MEAN_ANOMALY   = 139.8432

EPHEMERIS_TYPE = 0
CLASSIFICATION_TYPE = U
NORAD_CAT_ID   = 24298
ELEMENT_SET_NO = 999
REV_AT_EPOCH   = 51409
BSTAR          = .26924252E-4
MEAN_MOTION_DOT = 0
MEAN_MOTION_DDOT = 0

CCSDS_OMM_VERS = 2.0
CREATION_DATE  = 
ORIGINATOR     = 

OBJECT_NAME    = ORBVIEW 2 (SEASTAR)
OBJECT_ID      = 1997-037A
CENTER_NAME    = EARTH
REF_FRAME      = TEME
TIME_SYSTEM    = UTC
MEAN_ELEMENT_THEORY = SGP/SGP4

EPOCH          = 2026-01-15T10:38:36.684096
MEAN_MOTION    = 14.35445604
ECCENTRICITY   = .00018557
INCLINATION    = 98.8481
RA_OF_ASC_NODE = 178.3718
ARG_OF_PERICENTER = 192.3068
MEAN_ANOMALY   = 167.8071

EPHEMERIS_TYPE = 0
CLASSIFICATION_TYPE = U
NORAD_CAT_ID   = 24883
ELEMENT_SET_NO = 999
REV_AT_EPOCH   = 50083
BSTAR          = .84118188E-4
MEAN_MOTION_DOT = .195E-5
MEAN_MOTION_DDOT = 0

